[{"OBJECT_NAME":"HORYU-4","OBJECT_ID":"2016-012D","EPOCH":"2026-03-03T04:56:02.721984","MEAN_MOTION":15.61570838,"ECCENTRICITY":0.0001972,"INCLINATION":30.9912,"RA_OF_ASC_NODE":113.3204,"ARG_OF_PERICENTER":80.6893,"MEAN_ANOMALY":279.3983,"EPHEMERIS_TYPE":0,"CLASSIFICATION_TYPE":"U","NORAD_CAT_ID":41340,"ELEMENT_SET_NO":999,"REV_AT_EPOCH":55409,"BSTAR":0.00098069,"MEAN_MOTION_DOT":0.00088491,"MEAN_MOTION_DDOT":0},{"OBJECT_NAME":"RAVAN","OBJECT_ID":"2016-067B","EPOCH":"2026-03-03T04:05:12.460704","MEAN_MOTION":15.45511771,"ECCENTRICITY":0.000693,"INCLINATION":98.0061,"RA_OF_ASC_NODE":300.2138,"ARG_OF_PERICENTER":26.9455,"MEAN_ANOMALY":333.2151,"EPHEMERIS_TYPE":0,"CLASSIFICATION_TYPE":"U","NORAD_CAT_ID":41849,"ELEMENT_SET_NO":999,"REV_AT_EPOCH":51127,"BSTAR":0.00087407,"MEAN_MOTION_DOT":0.00042041,"MEAN_MOTION_DDOT":0},{"OBJECT_NAME":"CELTEE 1","OBJECT_ID":"2016-067C","EPOCH":"2026-03-02T13:34:47.224704","MEAN_MOTION":15.1847465,"ECCENTRICITY":5.38e-5,"INCLINATION":98.0827,"RA_OF_ASC_NODE":280.8515,"ARG_OF_PERICENTER":127.4358,"MEAN_ANOMALY":232.6924,"EPHEMERIS_TYPE":0,"CLASSIFICATION_TYPE":"U","NORAD_CAT_ID":41850,"ELEMENT_SET_NO":999,"REV_AT_EPOCH":50969,"BSTAR":0.0003694,"MEAN_MOTION_DOT":7.54e-5,"MEAN_MOTION_DDOT":0},{"OBJECT_NAME":"OPTICUBE 04","OBJECT_ID":"2016-067D","EPOCH":"2026-03-03T03:28:43.374144","MEAN_MOTION":15.09138115,"ECCENTRICITY":0.0017014,"INCLINATION":98.081,"RA_OF_ASC_NODE":268.8504,"ARG_OF_PERICENTER":114.39,"MEAN_ANOMALY":245.9105,"EPHEMERIS_TYPE":0,"CLASSIFICATION_TYPE":"U","NORAD_CAT_ID":41851,"ELEMENT_SET_NO":999,"REV_AT_EPOCH":50917,"BSTAR":0.00018634,"MEAN_MOTION_DOT":2.895e-5,"MEAN_MOTION_DDOT":0},{"OBJECT_NAME":"AEROCUBE 8D","OBJECT_ID":"2016-067E","EPOCH":"2026-03-03T03:46:01.844256","MEAN_MOTION":15.22725239,"ECCENTRICITY":0.0004384,"INCLINATION":98.0841,"RA_OF_ASC_NODE":284.2902,"ARG_OF_PERICENTER":128.2686,"MEAN_ANOMALY":231.8943,"EPHEMERIS_TYPE":0,"CLASSIFICATION_TYPE":"U","NORAD_CAT_ID":41852,"ELEMENT_SET_NO":999,"REV_AT_EPOCH":50992,"BSTAR":0.00045182,"MEAN_MOTION_DOT":0.00010468,"MEAN_MOTION_DDOT":0},{"OBJECT_NAME":"AEROCUBE 8C","OBJECT_ID":"2016-067F","EPOCH":"2026-03-03T03:10:56.907840","MEAN_MOTION":15.22947507,"ECCENTRICITY":0.0006681,"INCLINATION":98.0707,"RA_OF_ASC_NODE":281.6322,"ARG_OF_PERICENTER":71.4783,"MEAN_ANOMALY":288.7177,"EPHEMERIS_TYPE":0,"CLASSIFICATION_TYPE":"U","NORAD_CAT_ID":41853,"ELEMENT_SET_NO":999,"REV_AT_EPOCH":50991,"BSTAR":0.00044277,"MEAN_MOTION_DOT":0.00010327,"MEAN_MOTION_DDOT":0},{"OBJECT_NAME":"CORVUS BC2","OBJECT_ID":"2017-042X","EPOCH":"2026-03-03T00:21:17.816256","MEAN_MOTION":15.05524638,"ECCENTRICITY":0.0014245,"INCLINATION":97.392,"RA_OF_ASC_NODE":227.6145,"ARG_OF_PERICENTER":114.4445,"MEAN_ANOMALY":245.827,"EPHEMERIS_TYPE":0,"CLASSIFICATION_TYPE":"U","NORAD_CAT_ID":42846,"ELEMENT_SET_NO":999,"REV_AT_EPOCH":47108,"BSTAR":0.0003935,"MEAN_MOTION_DOT":5.617e-5,"MEAN_MOTION_DDOT":0},{"OBJECT_NAME":"CORVUS BC1","OBJECT_ID":"2017-042Y","EPOCH":"2026-03-03T00:32:03.816960","MEAN_MOTION":15.05742733,"ECCENTRICITY":0.0013307,"INCLINATION":97.3952,"RA_OF_ASC_NODE":228.3628,"ARG_OF_PERICENTER":92.3709,"MEAN_ANOMALY":267.9043,"EPHEMERIS_TYPE":0,"CLASSIFICATION_TYPE":"U","NORAD_CAT_ID":42847,"ELEMENT_SET_NO":999,"REV_AT_EPOCH":47111,"BSTAR":0.00029722,"MEAN_MOTION_DOT":4.251e-5,"MEAN_MOTION_DDOT":0},{"OBJECT_NAME":"MAKERSAT 0","OBJECT_ID":"2017-073D","EPOCH":"2026-03-02T21:21:21.616128","MEAN_MOTION":15.27407451,"ECCENTRICITY":0.0116311,"INCLINATION":97.4799,"RA_OF_ASC_NODE":303.8469,"ARG_OF_PERICENTER":290.2931,"MEAN_ANOMALY":68.5838,"EPHEMERIS_TYPE":0,"CLASSIFICATION_TYPE":"U","NORAD_CAT_ID":43016,"ELEMENT_SET_NO":999,"REV_AT_EPOCH":45021,"BSTAR":0.00082958,"MEAN_MOTION_DOT":0.00027189,"MEAN_MOTION_DDOT":0},{"OBJECT_NAME":"SIRION PATHFINDER-2","OBJECT_ID":"2018-099B","EPOCH":"2026-03-03T02:33:02.951424","MEAN_MOTION":15.13439131,"ECCENTRICITY":0.0007616,"INCLINATION":97.4403,"RA_OF_ASC_NODE":113.688,"ARG_OF_PERICENTER":313.6879,"MEAN_ANOMALY":46.3721,"EPHEMERIS_TYPE":0,"CLASSIFICATION_TYPE":"U","NORAD_CAT_ID":43759,"ELEMENT_SET_NO":999,"REV_AT_EPOCH":39657,"BSTAR":0.00035155,"MEAN_MOTION_DOT":6.223e-5,"MEAN_MOTION_DDOT":0},{"OBJECT_NAME":"CORVUS BC4","OBJECT_ID":"2018-099K","EPOCH":"2026-03-03T02:32:04.924320","MEAN_MOTION":15.11527775,"ECCENTRICITY":0.0008737,"INCLINATION":97.4221,"RA_OF_ASC_NODE":108.1812,"ARG_OF_PERICENTER":19.2666,"MEAN_ANOMALY":340.8893,"EPHEMERIS_TYPE":0,"CLASSIFICATION_TYPE":"U","NORAD_CAT_ID":43767,"ELEMENT_SET_NO":999,"REV_AT_EPOCH":39637,"BSTAR":0.00032294,"MEAN_MOTION_DOT":5.415e-5,"MEAN_MOTION_DDOT":0},{"OBJECT_NAME":"SPACEBEE-7","OBJECT_ID":"2018-099BL","EPOCH":"2026-03-02T18:08:26.549376","MEAN_MOTION":16.03076494,"ECCENTRICITY":0.00078214,"INCLINATION":97.4408,"RA_OF_ASC_NODE":148.0919,"ARG_OF_PERICENTER":270.3555,"MEAN_ANOMALY":89.6828,"EPHEMERIS_TYPE":0,"CLASSIFICATION_TYPE":"U","NORAD_CAT_ID":43816,"ELEMENT_SET_NO":999,"REV_AT_EPOCH":39810,"BSTAR":0.0019892206,"MEAN_MOTION_DOT":0.01193306,"MEAN_MOTION_DDOT":0.00078424326},{"OBJECT_NAME":"M2 PATHFINDER","OBJECT_ID":"2020-037E","EPOCH":"2026-03-03T02:14:25.896192","MEAN_MOTION":15.04121673,"ECCENTRICITY":0.0012363,"INCLINATION":97.8145,"RA_OF_ASC_NODE":252.1438,"ARG_OF_PERICENTER":146.9001,"MEAN_ANOMALY":213.3001,"EPHEMERIS_TYPE":0,"CLASSIFICATION_TYPE":"U","NORAD_CAT_ID":45727,"ELEMENT_SET_NO":999,"REV_AT_EPOCH":30954,"BSTAR":0.00022816,"MEAN_MOTION_DOT":3.103e-5,"MEAN_MOTION_DDOT":0},{"OBJECT_NAME":"NETSAT-4","OBJECT_ID":"2020-068U","EPOCH":"2026-03-02T23:08:21.239808","MEAN_MOTION":15.40038733,"ECCENTRICITY":0.0005618,"INCLINATION":97.8634,"RA_OF_ASC_NODE":61.9631,"ARG_OF_PERICENTER":5.0284,"MEAN_ANOMALY":355.1016,"EPHEMERIS_TYPE":0,"CLASSIFICATION_TYPE":"U","NORAD_CAT_ID":46504,"ELEMENT_SET_NO":999,"REV_AT_EPOCH":29940,"BSTAR":0.00057063,"MEAN_MOTION_DOT":0.00022756,"MEAN_MOTION_DDOT":0},{"OBJECT_NAME":"NETSAT-3","OBJECT_ID":"2020-068V","EPOCH":"2026-03-02T22:46:08.320224","MEAN_MOTION":15.38690706,"ECCENTRICITY":0.000614,"INCLINATION":97.8669,"RA_OF_ASC_NODE":60.3161,"ARG_OF_PERICENTER":21.2867,"MEAN_ANOMALY":338.8631,"EPHEMERIS_TYPE":0,"CLASSIFICATION_TYPE":"U","NORAD_CAT_ID":46505,"ELEMENT_SET_NO":999,"REV_AT_EPOCH":29932,"BSTAR":0.00059236,"MEAN_MOTION_DOT":0.00022607,"MEAN_MOTION_DDOT":0},{"OBJECT_NAME":"NETSAT-1","OBJECT_ID":"2020-068W","EPOCH":"2026-03-02T22:58:08.917824","MEAN_MOTION":15.31759112,"ECCENTRICITY":0.0006763,"INCLINATION":97.8736,"RA_OF_ASC_NODE":55.831,"ARG_OF_PERICENTER":38.8799,"MEAN_ANOMALY":321.2927,"EPHEMERIS_TYPE":0,"CLASSIFICATION_TYPE":"U","NORAD_CAT_ID":46506,"ELEMENT_SET_NO":999,"REV_AT_EPOCH":29902,"BSTAR":0.00057636,"MEAN_MOTION_DOT":0.00017623,"MEAN_MOTION_DDOT":0},{"OBJECT_NAME":"NETSAT-2","OBJECT_ID":"2020-068X","EPOCH":"2026-03-03T01:15:29.898432","MEAN_MOTION":15.41171786,"ECCENTRICITY":0.0005536,"INCLINATION":97.8647,"RA_OF_ASC_NODE":61.6484,"ARG_OF_PERICENTER":39.6354,"MEAN_ANOMALY":320.5295,"EPHEMERIS_TYPE":0,"CLASSIFICATION_TYPE":"U","NORAD_CAT_ID":46507,"ELEMENT_SET_NO":999,"REV_AT_EPOCH":29936,"BSTAR":0.000652,"MEAN_MOTION_DOT":0.0002702,"MEAN_MOTION_DDOT":0}]
