HORYU-4                 
1 41340U 16012D   26062.20558706  .00088491  00000+0  98069-3 0  9995
2 41340  30.9912 113.3204 0001972  80.6893 279.3983 15.61570838554093
RAVAN                   
1 41849U 16067B   26062.17028311  .00042041  00000+0  87407-3 0  9994
2 41849  98.0061 300.2138 0006930  26.9455 333.2151 15.45511771511279
CELTEE 1                
1 41850U 16067C   26061.56582436  .00007540  00000+0  36940-3 0  9992
2 41850  98.0827 280.8515 0000538 127.4358 232.6924 15.18474650509697
OPTICUBE 04             
1 41851U 16067D   26062.14494646  .00002895  00000+0  18634-3 0  9991
2 41851  98.0810 268.8504 0017014 114.3900 245.9105 15.09138115509173
AEROCUBE 8D             
1 41852U 16067E   26062.15696579  .00010468  00000+0  45182-3 0  9995
2 41852  98.0841 284.2902 0004384 128.2686 231.8943 15.22725239509924
AEROCUBE 8C             
1 41853U 16067F   26062.13260310  .00010327  00000+0  44277-3 0  9992
2 41853  98.0707 281.6322 0006681  71.4783 288.7177 15.22947507509915
CORVUS BC2              
1 42846U 17042X   26062.01478954  .00005617  00000+0  39350-3 0  9993
2 42846  97.3920 227.6145 0014245 114.4445 245.8270 15.05524638471089
CORVUS BC1              
1 42847U 17042Y   26062.02226640  .00004251  00000+0  29722-3 0  9993
2 42847  97.3952 228.3628 0013307  92.3709 267.9043 15.05742733471119
MAKERSAT 0              
1 43016U 17073D   26061.88983352  .00027189  00000+0  82958-3 0  9994
2 43016  97.4799 303.8469 0116311 290.2931  68.5838 15.27407451450219
SIRION PATHFINDER-2     
1 43759U 18099B   26062.10628416  .00006223  00000+0  35155-3 0  9993
2 43759  97.4403 113.6880 0007616 313.6879  46.3721 15.13439131396575
CORVUS BC4              
1 43767U 18099K   26062.10561255  .00005415  00000+0  32294-3 0  9992
2 43767  97.4221 108.1812 0008737  19.2666 340.8893 15.11527775396374
SPACEBEE-7              
1 43816U 18099BL  26061.75586284  .01193306  78424-3  19892-2 0  9991
2 43816  97.4408 148.0919 0007821 270.3555  89.6828 16.03076494398105
M2 PATHFINDER           
1 45727U 20037E   26062.09335528  .00003103  00000+0  22816-3 0  9996
2 45727  97.8145 252.1438 0012363 146.9001 213.3001 15.04121673309543
NETSAT-4                
1 46504U 20068U   26061.96413472  .00022756  00000+0  57063-3 0  9991
2 46504  97.8634  61.9631 0005618   5.0284 355.1016 15.40038733299402
NETSAT-3                
1 46505U 20068V   26061.94870741  .00022607  00000+0  59236-3 0  9995
2 46505  97.8669  60.3161 0006140  21.2867 338.8631 15.38690706299323
NETSAT-1                
1 46506U 20068W   26061.95704766  .00017623  00000+0  57636-3 0  9994
2 46506  97.8736  55.8310 0006763  38.8799 321.2927 15.31759112299024
NETSAT-2                
1 46507U 20068X   26062.05242938  .00027020  00000+0  65200-3 0  9993
2 46507  97.8647  61.6484 0005536  39.6354 320.5295 15.41171786299369
